STARLINK-31448          
1 59611U 24080L   26068.30660454 -.00000110  00000+0  55219-5 0  9995
2 59611  43.0048  36.6460 0001473 247.8128 112.2567 15.27580783104516
TANSTAAFL-2             
1 62378U 24247B   26067.20753490  .00013897  00000+0  50872-3 0  9998
2 62378  44.9880 125.0934 0003072 298.8909  61.1666 15.28016845 67506
